GLOBALSTAR M057         
1 25943U 99058A   24216.90640254 -.00000095  00000+0 -15384-4 0  9999
2 25943  51.9966 168.6198 0002444  73.1892 286.9225 12.24790735128054
GLOBALSTAR M059         
1 25944U 99058B   24216.91535637 -.00000134  00000+0 -59114-3 0  9991
2 25944  52.0047 345.4858 0000914  87.1079  63.8186 11.99965425535957
GLOBALSTAR M031         
1 25946U 99058D   24216.90910294  .00000029  00000+0  12085-2 0  9994
2 25946  51.9948 266.9314 0001435 240.7221 290.2684 12.16012253125941
GLOBALSTAR M034         
1 25962U 99062B   24216.90980675 -.00000063  00000+0  29057-3 0  9994
2 25962  51.9870 116.1149 0013601 159.9560 280.0962 11.79429779100953
GLOBALSTAR M029         
1 25963U 99062C   24216.82456899 -.00000060  00000+0  31890-3 0  9997
2 25963  51.9770 234.0409 0002693 213.8338 318.1315 11.99881258131027
